TEVEL2-2                
1 63219U 25052K   26068.64848259  .00020339  00000+0  69428-3 0  9991
2 63219  97.3987 324.7700 0004693 105.7930 254.3828 15.30343745 54855
STARLINK-35846          
1 66367U 25254V   26068.70961338  .00041693  00000+0  14115-2 0  9991
2 66367  53.1604 232.0046 0001030 136.8276 223.2806 15.30210278 18981
